GLOBALSTAR M094         
1 39074U 13005C   25018.12305380 -.00000067  00000+0  20361-3 0  9998
2 39074  51.9959 279.0204 0000675  42.3039 317.7879 12.62267206553443
GLOBALSTAR M096         
1 39075U 13005D   25018.29464813 -.00000075  00000+0  16155-3 0  9999
2 39075  52.0096 326.8945 0000341  18.5164 341.5715 12.62266793552718
GLOBALSTAR M078         
1 39076U 13005E   25017.79252838  .00000052  00000+0  86853-3 0  9992
2 39076  51.9883  53.1317 0001026 184.6111 175.4746 12.62269390550927
GLOBALSTAR M095         
1 39077U 13005F   25018.05688993 -.00000086  00000+0  10093-3 0  9999
2 39077  51.9810  49.6009 0000505 204.4976 155.5866 12.62265493551177
GLOBALSTAR M087         
1 52888U 22064A   25017.62493650 -.00000112  00000+0 -32576-4 0  9997
2 52888  51.9786 192.4142 0019311  25.4547 334.7270 12.68869356126025
